OBJECT_NAME,OBJECT_ID,EPOCH,MEAN_MOTION,ECCENTRICITY,INCLINATION,RA_OF_ASC_NODE,ARG_OF_PERICENTER,MEAN_ANOMALY,EPHEMERIS_TYPE,CLASSIFICATION_TYPE,NORAD_CAT_ID,ELEMENT_SET_NO,REV_AT_EPOCH,BSTAR,MEAN_MOTION_DOT,MEAN_MOTION_DDOT
SAUDISAT 1C (SO-50),2002-058C,2026-06-28T22:56:26.738592,14.83070324,.00749887,64.5520,92.5735,260.2770,98.9861,0,U,27607,999,26620,.12106093E-3,.88E-5,0
SAUDISAT 2,2004-025F,2026-06-28T23:32:26.983968,14.56690181,.00234455,98.5509,180.2676,260.0829,99.7721,0,U,28371,999,16746,.6331579E-4,.234E-5,0
SAUDISAT 3,2007-012B,2026-06-28T19:39:25.377408,14.71431820,.00144159,98.1459,130.2274,185.2684,174.8373,0,U,31118,999,2945,.45918026E-4,.234E-5,0
PISAT,2016-059B,2026-06-28T22:16:15.223872,14.69002723,.00293833,97.8180,179.8763,165.1066,195.1013,0,U,41784,999,52146,.15960571E-3,.894E-5,0
FLYING LAPTOP,2017-042G,2026-06-28T23:36:27.663264,15.01219213,.00199894,97.4732,335.0661,83.9472,276.4030,0,U,42831,999,48822,.23886686E-3,.3021E-4,0
SALSAT,2020-068K,2026-06-28T23:37:04.859328,15.29961615,.00078707,97.8845,183.7681,257.4321,102.6038,0,U,46495,999,31716,.23731316E-3,.6804E-4,0
