SAUDISAT 1C (SO-50)     
1 27607U 02058C   26179.95586503  .00000880  00000+0  12106-3 0  9991
2 27607  64.5520  92.5735 0074988 260.2770  98.9861 14.83070324266206
SAUDISAT 2              
1 28371U 04025F   26179.98086787  .00000234  00000+0  63316-4 0  9991
2 28371  98.5509 180.2676 0023445 260.0829  99.7721 14.56690181167464
SAUDISAT 3              
1 31118U 07012B   26179.81904372  .00000234  00000+0  45918-4 0  9992
2 31118  98.1459 130.2274 0014415 185.2684 174.8373 14.71431820 29454
PISAT                   
1 41784U 16059B   26179.92795398  .00000894  00000+0  15961-3 0  9997
2 41784  97.8180 179.8763 0029383 165.1066 195.1013 14.69002723521462
FLYING LAPTOP           
1 42831U 17042G   26179.98365351  .00003021  00000+0  23887-3 0  9993
2 42831  97.4732 335.0661 0019989  83.9472 276.4030 15.01219213488226
SALSAT                  
1 46495U 20068K   26179.98408402  .00006804  00000+0  23731-3 0  9990
2 46495  97.8845 183.7681 0007870 257.4321 102.6038 15.29961615317164
